[{"OBJECT_NAME":"STARLINK-36210","OBJECT_ID":"2025-303M","EPOCH":"2026-03-09T00:50:21.020064","MEAN_MOTION":15.27594454,"ECCENTRICITY":0.00022379,"INCLINATION":43.0036,"RA_OF_ASC_NODE":314.5291,"ARG_OF_PERICENTER":258.7936,"MEAN_ANOMALY":101.2664,"EPHEMERIS_TYPE":0,"CLASSIFICATION_TYPE":"U","NORAD_CAT_ID":67174,"ELEMENT_SET_NO":999,"REV_AT_EPOCH":1263,"BSTAR":0.0013034625,"MEAN_MOTION_DOT":0.00035797,"MEAN_MOTION_DDOT":0},{"OBJECT_NAME":"CZ-4C DEB","OBJECT_ID":"2007-055C","EPOCH":"2026-03-09T22:46:15.652128","MEAN_MOTION":15.30523578,"ECCENTRICITY":0.00469709,"INCLINATION":97.8668,"RA_OF_ASC_NODE":247.2248,"ARG_OF_PERICENTER":277.363,"MEAN_ANOMALY":82.2273,"EPHEMERIS_TYPE":0,"CLASSIFICATION_TYPE":"U","NORAD_CAT_ID":35248,"ELEMENT_SET_NO":999,"REV_AT_EPOCH":97353,"BSTAR":0.0018809895,"MEAN_MOTION_DOT":0.000577,"MEAN_MOTION_DDOT":0}]
